STARLINK-1422
1 25696C 20035AR  21325.14027407  .00005462  00000-0  36592-3 0  3256
2 25696  53.0537 262.6015 0002066  47.8445  29.5536 15.06393338    15
